{"type":"FeatureCollection","features":[{"type":"Feature","properties":{"name":"GOBI DESERT"},"geometry":{"type":"Polygon","coordinates":[[[117.522472,44.508734],[117.340831,44.079291],[117.301036,43.91474],[117.248668,43.222785],[117.191905,43.017829],[117.106456,42.837226],[116.990123,42.682502],[116.840953,42.555182],[116.656993,42.456671],[116.436534,42.388556],[113.695323,42.3039],[113.075328,42.146918],[112.503917,41.862982],[111.703245,41.234576],[111.631905,41.178586],[111.547618,41.112433],[111.434114,41.060598],[111.134776,40.923896],[110.695323,40.8581],[107.419078,41.341681],[107.350289,41.339969],[107.276866,41.338141],[107.164806,41.296698],[107.08961,41.204474],[106.998912,40.813544],[106.85377,40.647284],[106.647838,40.530829],[105.909434,40.291022],[105.704356,40.184638],[105.560557,40.033515],[105.404131,39.559963],[105.375133,39.472174],[105.331309,39.390509],[105.256589,39.292108],[105.141612,39.140692],[104.809703,38.480231],[104.666026,38.320258],[104.456676,38.175299],[104.200694,38.049933],[103.65955,37.88682],[103.625621,37.876593],[103.094249,37.837104],[102.567699,38.096938],[102.374889,38.192084],[102.284293,38.210481],[102.014445,38.26528],[101.595788,38.350297],[100.996903,38.471913],[100.955943,38.480231],[100.6515,38.685981],[100.445441,38.872987],[100.368805,38.942538],[99.924693,39.345587],[99.650035,39.492865],[99.369278,39.547431],[99.287299,39.563364],[99.24586,39.571418],[99.102989,39.638384],[98.968928,39.701222],[98.839976,39.761664],[98.698985,39.803046],[98.123573,39.87201],[96.819582,40.028296],[96.45044,40.072539],[96.438696,40.073946],[95.927623,40.135199],[95.619118,40.244936],[95.36378,40.335761],[95.108287,40.492804],[94.881724,40.690497],[94.693004,40.930854],[94.550426,41.215827],[94.486583,41.433295],[94.462047,41.638617],[94.473643,41.833014],[94.518321,42.017218],[94.593028,42.19245],[95.278575,43.019355],[95.331432,43.117926],[95.362315,43.22248],[95.373424,43.34162],[95.339854,43.921332],[95.377611,44.086325],[95.505504,44.645209],[96.211192,44.856879],[99.695079,44.453864],[99.912081,44.474378],[100.751449,44.553726],[102.276378,44.697882],[104.285167,45.329962],[108.529063,45.432868],[109.133311,45.599799],[113.199229,47.673041],[113.812999,47.785773],[114.741131,47.756323],[115.719249,47.725287],[117.579845,47.344428],[117.684703,47.203803],[117.72108,46.928717],[117.522472,44.508734]]]}},{"type":"Feature","properties":{"name":"SAHARA"},"geometry":{"type":"MultiPolygon","coordinates":[[[[17.903331,29.555182],[18.458873,29.555182],[18.621082,29.560595],[19.252696,29.581671],[19.92788,29.831398],[20.218394,29.938849],[22.066613,30.334879],[22.070445,30.3357],[23.490715,30.312362],[25.98522,30.271372],[26.899181,30.256354],[27.220121,30.24195],[30.960938,30.07406],[31.026622,30.071112],[31.177019,30.115366],[31.251475,30.137274],[31.30035,30.176375],[31.714488,30.507697],[32.272968,30.621934],[32.296641,30.626776],[32.416345,30.375327],[32.555438,30.083148],[32.561168,30.071112],[32.488247,29.9334],[32.473047,29.925439],[32.476291,29.910821],[32.323009,29.621344],[32.537519,29.294489],[32.589712,29.214961],[32.600841,29.198004],[32.635512,29.103949],[32.631836,28.992236],[32.658887,28.927734],[32.729871,28.847974],[32.786143,28.695319],[32.894982,28.570346],[32.898242,28.565234],[32.906711,28.556878],[33.142542,28.286088],[33.202148,28.208301],[33.244404,28.169126],[33.500499,27.875067],[33.554591,27.771769],[33.558789,27.701221],[33.549805,27.607373],[33.657422,27.430566],[33.697266,27.341113],[33.80166,27.268164],[33.849316,27.184912],[33.893066,27.049463],[33.959082,26.649023],[34.049512,26.550732],[34.329297,26.024365],[34.565137,25.691162],[34.679297,25.442529],[34.853223,25.139795],[35.194141,24.475146],[35.378428,24.288819],[35.405528,24.237067],[35.437127,24.212841],[35.477832,24.154785],[35.624707,24.066016],[35.783887,23.937793],[35.764481,23.939397],[35.659193,23.957705],[35.498057,23.985724],[35.484874,23.615302],[35.517587,23.537303],[35.522754,23.442529],[35.564355,23.271094],[35.697852,22.946191],[35.797363,22.84873],[35.845801,22.785693],[35.913379,22.739648],[35.945346,22.728446],[35.96107,22.70246],[36.230876,22.504096],[36.856195,22.044355],[36.867269,22.022087],[36.870577,22.012511],[36.871387,21.996729],[36.882617,21.768799],[36.926953,21.586523],[37.081152,21.326025],[37.115866,21.288754],[37.148485,21.076713],[37.141113,20.981787],[37.156836,20.894922],[37.172656,20.731982],[37.227539,20.556738],[37.187891,20.394922],[37.193164,20.120703],[37.262598,19.791895],[37.248438,19.581885],[37.361523,19.091992],[37.471289,18.820117],[37.500642,18.787535],[37.508922,18.73371],[37.74472,18.407291],[37.852916,18.257514],[37.847301,18.240171],[37.821374,18.160086],[37.71793,17.840562],[37.707286,17.807685],[38.329112,16.206977],[38.461436,15.161872],[38.401651,15.151329],[38.236461,15.122199],[37.879283,14.579779],[38.005207,13.887374],[38.011607,13.852179],[38.010119,13.850195],[37.733775,13.481757],[37.617262,13.574445],[37.151744,13.94477],[37.143515,13.971504],[36.992931,14.4607],[36.983099,14.756702],[36.979747,14.857611],[36.622569,15.254462],[36.558871,15.225649],[36.538812,15.216576],[36.066905,15.003119],[36.022516,14.880374],[35.842052,14.381354],[35.793372,14.274978],[35.181962,12.938903],[35.127696,12.820319],[35.118816,12.815708],[34.313261,12.397421],[33.782395,12.121767],[33.751842,12.105902],[33.44752,11.404792],[33.452519,11.336685],[33.518095,10.443241],[33.550519,10.001487],[33.553355,9.962836],[33.164678,9.824791],[32.370134,9.542597],[32.137828,9.460089],[31.588605,9.465181],[31.475051,9.466234],[30.709117,9.473334],[30.494029,9.497568],[29.826562,9.572772],[29.769786,9.579169],[29.582619,9.444373],[29.569785,9.43513],[29.439098,9.34101],[29.401464,9.349022],[29.285221,9.373772],[29.076406,9.418231],[28.998345,9.434851],[27.687582,9.713929],[27.38856,9.777594],[26.988168,9.769734],[26.713878,9.76435],[26.237682,10.267096],[25.843649,10.07008],[25.734874,10.015692],[25.673228,9.98487],[25.565397,9.996851],[25.395833,10.015692],[24.298361,10.137638],[24.288474,10.138737],[23.927013,10.1789],[23.690961,10.269689],[23.494273,10.345339],[23.468394,10.355292],[22.669482,10.171758],[22.66478,10.170678],[22.499332,10.13267],[22.163097,10.055426],[22.04123,10.137505],[21.955587,10.195187],[21.681089,10.380067],[21.298839,10.637519],[21.27985,10.633925],[21.190576,10.617028],[20.769126,10.537263],[20.646129,10.513983],[21.02764,10.265267],[21.05189,10.249457],[21.032221,10.243884],[20.079812,9.974035],[19.993541,9.949591],[19.979323,9.968887],[19.775748,10.245168],[19.746593,10.284735],[19.887706,10.778571],[20.032426,10.887111],[20.099376,10.937323],[19.870006,11.113715],[19.774624,11.135727],[18.948037,11.326488],[18.723521,11.378302],[18.000377,11.537055],[17.135997,11.537055],[17.167966,11.498817],[17.800565,10.74217],[18.035533,10.461127],[17.655887,10.223793],[17.612193,10.196479],[17.591039,10.216315],[17.44197,10.356098],[17.047862,10.725653],[16.86769,11.05819],[16.818492,11.148993],[16.201182,11.554755],[16.16442,11.528328],[15.6549,11.162055],[15.636729,11.148993],[15.661784,10.954834],[15.732071,10.410137],[15.773566,10.088566],[15.777843,10.055426],[15.688469,10.046018],[15.31838,10.007059],[14.772472,9.949591],[14.349132,10.231818],[14.32693,10.27525],[14.285871,10.355571],[13.94337,11.02558],[13.555308,11.842475],[13.505148,11.971888],[13.330211,12.423224],[12.567515,12.859992],[11.695462,12.88004],[11.03297,12.89527],[9.957042,13.230414],[8.552996,14.021167],[8.422374,14.094733],[7.667324,14.099098],[5.788803,14.109956],[5.37086,14.112372],[5.318602,14.092141],[4.824107,13.900702],[3.342522,14.116767],[3.130748,14.14765],[2.726522,14.108724],[0.749522,13.918341],[-0.432362,13.865424],[-1.737599,14.130011],[-1.892115,14.241252],[-2.572127,14.730813],[-2.619557,14.76496],[-2.884145,15.135382],[-3.80132,14.923774],[-3.79284,14.941678],[-3.512803,15.532926],[-3.483876,15.594001],[-3.230388,15.627064],[-2.672475,15.699836],[-2.072743,16.176093],[-2.098274,16.177135],[-2.578307,16.196728],[-2.870533,16.208656],[-2.937062,16.211371],[-2.936326,16.217248],[-2.905719,16.461685],[-2.901723,16.493598],[-2.327755,16.645342],[-1.383799,16.894904],[-1.367177,16.899298],[-1.341609,16.894904],[-0.238271,16.705268],[-0.227786,16.831486],[-0.223896,16.878313],[-0.220693,16.916877],[-0.672724,17.027936],[-0.938886,17.093329],[-1.226064,17.163886],[-1.498143,17.093329],[-2.178578,16.916877],[-3.018224,16.672669],[-3.148732,16.634711],[-3.590438,16.406734],[-4.24236,16.070258],[-4.814003,15.724232],[-4.912587,15.664557],[-4.592095,15.57715],[-4.524526,15.558722],[-4.528479,15.549152],[-4.695691,15.14432],[-4.85967,14.747321],[-7.625684,15.161483],[-8.158193,15.241217],[-8.754706,15.186563],[-10.72576,15.005971],[-11.960379,14.892853],[-12.5855,14.835578],[-13.070779,14.866292],[-13.947467,14.921778],[-13.978993,14.923774],[-14.055029,14.949474],[-16.35017,15.72524],[-16.483754,15.770392],[-16.483754,15.804886],[-16.483754,16.025692],[-16.483754,16.446697],[-16.481299,16.454248],[-16.476397,16.49509],[-16.444438,16.654816],[-16.34668,16.926416],[-16.207471,17.192578],[-16.094237,17.503723],[-16.070459,17.536261],[-16.026914,17.595849],[-16.007436,17.622504],[-16.016286,18.072272],[-16.042775,18.73371],[-16.19578,18.924975],[-16.213086,19.00332],[-16.305908,19.153809],[-16.476172,19.285059],[-16.514453,19.361963],[-16.474805,19.390625],[-16.371289,19.410254],[-16.305273,19.512646],[-16.444873,19.473145],[-16.283398,19.787158],[-16.233203,20.000977],[-16.234835,20.029736],[-16.122121,20.241889],[-16.33037,20.410732],[-16.33374,20.415869],[-16.429785,20.652344],[-16.479199,20.689795],[-16.53042,20.709521],[-16.534912,20.654004],[-16.562695,20.60415],[-16.57907,20.612371],[-16.63899,20.660953],[-16.728369,20.806152],[-16.876074,21.086133],[-16.92793,21.114795],[-16.971143,21.076465],[-16.998242,21.039697],[-17.014146,20.96512],[-17.019221,20.969234],[-17.058441,21.001033],[-17.072166,21.012161],[-17.049488,21.144478],[-17.036017,21.172919],[-16.426849,22.459022],[-16.386708,22.543769],[-16.344422,22.607199],[-15.063832,24.528144],[-15.062015,24.533266],[-15.059998,24.538948],[-15.038867,24.548828],[-14.904297,24.719775],[-14.856055,24.871582],[-14.845847,25.142442],[-14.670652,25.636156],[-14.66409,25.654648],[-14.602295,25.808545],[-14.522754,25.925244],[-14.470557,26.163037],[-14.459199,26.181204],[-13.63506,26.644782],[-12.621518,27.987696],[-12.615697,27.995408],[-12.468896,28.009424],[-12.263142,28.060509],[-10.72466,28.126471],[-8.575809,28.743668],[-8.237538,28.840827],[-7.64872,29.111796],[-7.566826,29.149482],[-5.428847,30.133362],[-5.398114,30.147505],[-5.247792,30.216681],[-2.862983,31.071561],[-2.443166,31.222052],[2.372203,33.179999],[5.626598,34.60871],[8.114066,34.287079],[8.695811,34.211859],[8.833398,34.114041],[9.954579,33.316934],[10.732605,32.763793],[11.603806,32.144409],[12.082408,31.804145],[12.182245,31.773354],[14.913463,30.931037],[17.903331,29.555182]]],[[[-16.355453,19.802705],[-16.37334,19.706445],[-16.437549,19.609277],[-16.449752,19.625213],[-16.355453,19.802705]]]]}},{"type":"Feature","properties":{"name":"BETPAQDALA DESERT"},"geometry":{"type":"Polygon","coordinates":[[[73.028298,44.702572],[73.229259,44.615912],[73.587169,44.386908],[73.747813,44.243354],[73.862926,44.090033],[73.897105,44.009711],[73.929088,43.823554],[73.91151,43.629523],[73.883556,43.539313],[73.84254,43.458869],[73.788097,43.392035],[73.621226,43.264838],[73.451915,43.196479],[72.219005,43.040107],[71.580699,43.08869],[70.105379,43.470042],[69.311778,43.675177],[69.188365,43.763312],[69.118663,43.843451],[68.994447,43.928722],[68.925548,43.97602],[68.294932,44.240363],[68.164073,44.331916],[68.055308,44.44477],[67.731578,44.913398],[67.469981,45.158271],[67.444591,45.192145],[67.424815,45.228888],[67.398204,45.320807],[67.389537,45.380744],[67.398814,45.617926],[67.478038,45.802314],[67.612926,45.942939],[67.789683,46.048529],[69.718028,46.585944],[69.986949,46.584296],[72.024669,46.094672],[72.102916,46.049018],[72.237193,45.914557],[72.597423,45.35987],[72.663341,45.135138],[72.705211,45.05036],[73.028298,44.702572]]]}},{"type":"Feature","properties":{"name":"PUNJAB"},"geometry":{"type":"Polygon","coordinates":[[[76.532115,29.606513],[76.486339,29.553595],[76.356456,29.456732],[76.208385,29.385565],[76.139903,29.364691],[76.081798,29.356452],[76.036876,29.35932],[75.999156,29.369818],[75.966563,29.386542],[75.774425,29.55091],[75.729259,29.573065],[75.665633,29.588188],[75.637584,29.594855],[74.393443,29.532904],[73.959117,29.358405],[72.570933,29.269049],[72.486095,29.28974],[72.468272,29.297797],[72.38734,29.366523],[72.37025,29.375251],[72.289561,29.397223],[72.201549,29.402961],[72.113414,29.394171],[72.109567,29.393138],[72.032725,29.372504],[71.786627,29.238136],[71.766002,29.226874],[71.708995,29.210456],[71.70081,29.210092],[71.649913,29.207831],[71.588634,29.222968],[71.55067,29.244208],[71.516124,29.274482],[71.456554,29.353461],[71.375987,29.525031],[71.339244,29.654364],[71.331554,29.774909],[71.35255,29.893866],[71.401988,30.018195],[71.441661,30.057929],[71.501475,30.164252],[71.534434,30.28089],[71.535167,31.037909],[71.597545,31.260688],[71.70753,31.483283],[72.067515,31.922248],[72.237193,32.364386],[72.281871,32.441657],[72.341319,32.503852],[72.423839,32.552314],[73.049815,32.715033],[73.406689,32.96002],[73.40919,32.961737],[73.601329,33.026862],[73.81837,33.041815],[73.920882,33.019949],[74.832527,32.825492],[74.963512,32.797553],[75.743419,32.297797],[75.865367,32.178229],[75.96107,32.049262],[75.988323,31.963235],[76.532237,30.246344],[76.575938,29.792548],[76.558726,29.659735],[76.532115,29.606513]]]}},{"type":"Feature","properties":{"name":"RUB’ AL KHALI"},"geometry":{"type":"Polygon","coordinates":[[[52.122813,22.621833],[52.479259,22.607367],[52.789561,22.620917],[53.342906,22.794318],[53.938975,23.143683],[54.907481,23.827338],[55.132213,23.880378],[55.348399,23.798957],[55.538219,23.640753],[55.683849,23.463446],[55.979015,23.051642],[56.109996,22.82569],[56.186534,22.60401],[56.199229,22.484442],[56.189464,21.558295],[56.143077,21.304145],[56.029918,21.049506],[55.941173,20.877509],[55.751842,20.359809],[55.685435,20.235541],[55.596934,20.1164],[55.241099,19.696845],[55.053722,19.512213],[54.848277,19.349128],[54.630138,19.221564],[54.444713,19.132636],[54.280528,19.042426],[54.126109,18.933234],[53.817393,18.638007],[53.651378,18.497931],[53.476329,18.369818],[53.296275,18.256354],[53.099864,18.178107],[52.866588,18.131781],[51.967174,18.077582],[51.773814,18.043891],[51.208018,17.895209],[50.80836,17.860968],[50.679088,17.830817],[49.449718,17.379584],[48.226329,17.03144],[48.040294,16.959052],[47.515636,16.700629],[47.37318,16.645575],[47.223033,16.613837],[46.730113,16.541144],[46.544078,16.542731],[46.358531,16.563727],[45.750743,16.670172],[45.621349,16.718695],[45.424571,16.815131],[45.327891,16.870307],[45.241954,16.932807],[45.038097,17.107367],[44.934459,17.208564],[44.86085,17.303046],[44.810802,17.428229],[44.788463,17.565314],[44.772838,18.362433],[44.789561,18.530707],[44.812877,18.639838],[44.847667,18.760932],[44.893199,18.888861],[44.948863,19.018439],[45.046641,19.19599],[45.151866,19.335273],[45.416881,19.600104],[45.529674,19.695624],[45.908336,19.938971],[46.252452,20.199408],[47.181773,21.074591],[47.940807,21.652289],[48.165294,21.875434],[48.449107,22.254096],[48.531383,22.387763],[48.677135,22.665229],[48.756724,22.798957],[48.956676,23.002509],[49.430553,23.33869],[49.587169,23.565192],[49.610118,23.734626],[49.608165,23.932929],[49.634044,24.117377],[49.739879,24.245185],[49.968516,24.255744],[50.230968,24.136115],[50.67274,23.829718],[50.917125,23.597968],[51.274669,23.033942],[51.494273,22.806586],[51.77589,22.682257],[52.122813,22.621833]]]}},{"type":"Feature","properties":{"name":"CAATINGAS"},"geometry":{"type":"MultiPolygon","coordinates":[[[[-41.647511,-2.913751],[-41.508773,-2.909682],[-41.479932,-2.916504],[-41.318213,-2.93623],[-41.232683,-2.901586],[-40.100354,-2.868381],[-40.024037,-2.866143],[-39.146665,-3.362805],[-38.877388,-3.515238],[-38.68623,-3.653711],[-38.571189,-3.68857],[-38.51476,-3.720514],[-38.393844,-3.831884],[-38.361914,-3.876465],[-38.271875,-3.948047],[-38.048828,-4.216406],[-37.795654,-4.404297],[-37.626318,-4.59209],[-37.529206,-4.628261],[-37.514825,-4.641506],[-37.291431,-4.847264],[-37.174184,-4.955255],[-37.136543,-4.959557],[-36.852578,-4.99201],[-36.82203,-4.995501],[-36.747363,-5.050684],[-36.590723,-5.097559],[-36.386719,-5.084277],[-36.161768,-5.09375],[-36.092844,-5.078837],[-35.939443,-5.096368],[-35.480824,-5.166925],[-35.268696,-5.668398],[-35.126784,-6.00388],[-35.095459,-6.185352],[-35.046242,-6.280963],[-34.953297,-6.673639],[-34.93517,-6.786798],[-35.025464,-6.819127],[-35.419364,-6.960161],[-35.78069,-7.089532],[-35.886525,-8.042047],[-36.551916,-9.372925],[-36.733144,-9.735406],[-38.188344,-9.298761],[-38.69402,-8.873224],[-39.361318,-8.6242],[-40.539967,-9.452935],[-41.105336,-8.718316],[-41.971913,-9.294488],[-42.712758,-9.647271],[-43.08318,-11.375787],[-43.824025,-10.740899],[-44.572621,-10.663263],[-44.629297,-10.675134],[-45.111684,-10.776178],[-45.041127,-9.788385],[-44.648717,-9.411671],[-44.560672,-9.327148],[-43.71819,-8.518365],[-42.554006,-7.460016],[-42.458455,-7.041998],[-42.130666,-5.607965],[-42.395253,-4.814142],[-42.880055,-4.46148],[-44.406117,-4.179132],[-44.719961,-3.202729],[-44.622656,-3.137891],[-44.437549,-2.944434],[-44.417498,-2.871174],[-44.102521,-2.541752],[-44.101367,-2.560059],[-44.112646,-2.598535],[-44.191602,-2.699609],[-44.225195,-2.75498],[-44.192676,-2.80957],[-44.013232,-2.642187],[-43.93291,-2.583496],[-43.864453,-2.59541],[-43.728613,-2.518164],[-43.455127,-2.502051],[-43.44345,-2.451729],[-43.227758,-2.422776],[-43.171437,-2.415216],[-43.107496,-2.436133],[-42.844036,-2.522321],[-42.832275,-2.52959],[-42.675879,-2.589648],[-42.593555,-2.661035],[-42.249609,-2.791992],[-41.999854,-2.806055],[-41.990486,-2.80155],[-41.967069,-2.809211],[-41.647511,-2.913751]]],[[[-44.723622,-3.191339],[-44.722663,-3.190336],[-44.722761,-3.194018],[-44.723622,-3.191339]]]]}},{"type":"Feature","properties":{"name":"KALAHARI DESERT"},"geometry":{"type":"Polygon","coordinates":[[[19.164439,-21.112359],[22.127818,-21.853204],[23.962291,-21.782647],[24.345836,-22.435479],[24.557506,-23.017511],[25.166026,-23.546685],[25.430675,-24.28753],[25.424795,-24.484263],[25.409444,-24.99792],[25.404185,-25.173883],[25.271983,-26.073419],[25.258678,-27.197931],[25.232188,-28.295953],[25.399791,-30.531671],[24.60609,-29.861383],[23.635875,-29.076471],[23.362559,-29.208795],[22.806895,-29.667413],[22.711649,-29.58535],[22.233653,-29.173517],[21.972567,-28.846269],[21.607432,-28.388604],[21.533414,-28.407115],[21.467911,-28.423496],[21.219371,-28.48565],[21.042979,-28.706109],[20.77383,-28.732476],[20.59315,-28.750177],[20.56908,-28.732476],[20.293346,-28.529718],[20.085345,-28.370964],[19.287974,-27.762384],[19.014537,-27.559503],[18.705821,-27.409601],[19.164561,-26.651178],[19.252696,-26.386529],[18.688243,-25.892633],[18.664215,-25.65734],[18.599986,-25.028375],[18.14149,-24.605035],[17.418224,-24.181695],[17.153697,-23.634942],[16.898237,-23.135594],[16.765636,-22.876397],[16.730357,-22.364923],[16.254039,-21.959161],[16.057767,-21.4825],[16.007091,-21.35943],[15.460338,-20.794976],[15.513194,-19.772027],[15.00172,-19.013482],[14.613658,-18.519586],[14.15504,-17.884576],[13.96107,-17.655328],[13.908092,-17.143731],[13.678722,-16.75567],[13.649796,-16.694176],[13.396617,-16.155938],[13.255382,-15.609185],[13.149669,-15.185846],[13.661143,-15.221002],[14.401988,-15.820733],[15.826147,-16.231576],[16.236339,-16.349908],[17.25941,-18.149102],[17.576915,-19.207452],[17.753307,-20.30108],[19.164439,-21.112359]]]}},{"type":"Feature","properties":{"name":"NAMIB DESERT"},"geometry":{"type":"Polygon","coordinates":[[[16.792003,-26.999444],[16.302501,-26.549737],[14.965431,-26.29499],[14.945816,-26.101721],[14.953136,-26.060235],[14.937192,-26.016752],[14.93125,-25.958203],[14.845215,-25.725684],[14.863672,-25.533594],[14.835842,-25.415134],[14.87379,-25.081231],[14.831703,-24.982183],[14.805014,-24.919372],[14.767969,-24.787988],[14.698907,-24.669659],[14.694884,-24.660191],[14.648936,-24.552057],[14.525923,-24.183016],[14.484344,-24.058279],[14.483398,-24.050391],[14.496875,-23.642871],[14.472461,-23.47666],[14.473828,-23.281152],[14.423828,-23.078613],[14.412208,-23.015974],[14.410777,-22.964532],[14.412706,-22.960675],[14.427552,-22.930982],[14.437157,-22.911773],[14.447059,-22.891969],[14.459277,-22.908203],[14.495703,-22.921387],[14.519922,-22.805176],[14.525977,-22.702539],[14.486853,-22.545622],[14.490123,-22.501519],[14.478331,-22.484794],[14.468052,-22.470212],[14.462793,-22.449121],[14.321875,-22.189941],[13.973242,-21.767578],[13.888086,-21.606641],[13.839355,-21.473242],[13.450586,-20.916699],[13.294291,-20.547358],[13.15548,-20.13778],[13.154063,-20.1336],[13.137984,-20.107655],[12.813723,-19.584445],[12.766164,-19.507706],[12.458203,-18.926758],[12.328711,-18.751074],[12.307993,-18.732388],[12.254405,-18.638604],[12.029552,-18.426935],[12.001711,-18.380041],[11.996849,-18.371853],[11.951367,-18.270508],[11.789534,-18.02267],[11.778209,-18.003595],[11.729981,-17.666446],[11.72168,-17.466797],[11.743066,-17.249219],[11.780078,-16.871289],[11.818945,-16.704102],[11.819922,-16.504297],[11.819882,-16.503399],[11.831065,-16.416192],[11.830111,-16.410052],[11.810016,-16.28076],[11.796973,-15.986426],[11.769434,-15.915332],[11.750879,-15.831934],[11.849707,-15.768359],[11.899902,-15.719824],[11.967871,-15.633984],[11.971664,-15.624525],[11.989879,-15.609185],[12.280894,-14.802179],[12.373546,-14.127496],[12.406523,-13.97631],[12.503711,-13.755469],[12.550488,-13.437793],[12.897656,-13.027734],[12.974733,-12.800638],[12.986258,-12.792955],[13.022014,-12.769118],[13.318678,-12.571342],[13.366624,-12.546503],[13.367764,-12.554865],[13.376921,-12.622041],[13.405406,-12.830987],[13.154063,-13.135309],[13.034923,-13.386651],[12.770396,-13.796808],[12.690929,-14.299493],[12.611583,-15.304864],[12.270729,-15.921014],[12.267589,-15.92669],[12.160713,-16.983936],[12.14857,-17.104059],[12.258036,-17.381918],[12.397979,-17.73714],[12.492564,-17.977227],[12.857458,-18.327795],[13.167247,-18.625421],[13.269063,-18.831412],[13.736095,-19.7763],[13.774773,-19.86224],[13.974254,-20.305475],[14.463634,-20.728814],[14.741466,-21.218316],[15.006114,-21.787164],[15.038088,-22.000408],[15.08546,-22.316339],[15.416148,-22.752862],[15.416684,-22.768112],[15.442638,-23.507013],[15.450938,-23.534178],[15.480409,-23.630624],[15.588145,-23.983209],[15.609481,-24.217654],[15.638658,-24.538265],[15.641124,-24.565362],[15.958629,-25.187066],[16.567149,-25.914727],[17.188853,-26.761407],[17.202159,-26.986261],[16.792003,-26.999444]]]}},{"type":"Feature","properties":{"name":"WESTERN DESERT"},"geometry":{"type":"Polygon","coordinates":[[[28.976085,30.243109],[29.968272,30.150519],[30.709117,30.163764],[30.914156,30.142555],[30.971628,30.136611],[31.127727,30.120464],[31.177019,30.115366],[31.220714,30.110846],[31.282359,29.678656],[31.242051,29.411171],[31.211925,29.211249],[31.041629,28.991538],[30.938487,28.858466],[30.735606,28.338141],[30.736584,28.313608],[30.737291,28.295879],[30.744395,28.117621],[30.841441,27.853034],[30.841441,27.456122],[31.035411,27.30622],[31.344127,27.059272],[31.555797,26.768256],[32.014415,26.221442],[32.270274,26.053839],[32.663661,26.140424],[32.711192,26.150885],[32.714244,26.115156],[32.733343,25.891534],[32.737559,25.84217],[32.722353,25.825514],[32.552379,25.63935],[32.550551,25.628008],[32.523269,25.458725],[32.508311,25.365912],[32.587657,25.21601],[32.878795,25.021979],[32.540998,25.015015],[31.3838,24.991156],[28.976085,24.872077],[28.070125,24.849284],[26.872691,24.819159],[25.152843,24.79267],[25.086681,25.321845],[25.086681,25.507553],[25.086681,25.956855],[25.181536,27.341403],[25.219005,27.888312],[25.236741,29.473885],[25.237877,29.575444],[25.245494,30.256354],[25.589366,30.243109],[25.98522,30.271372],[26.14503,30.282782],[27.322398,30.3357],[27.33637,30.334918],[28.976085,30.243109]]]}},{"type":"Feature","properties":{"name":"NUBIAN DESERT"},"geometry":{"type":"Polygon","coordinates":[[[35.983165,19.333441],[34.810191,18.424994],[34.201671,17.878241],[33.990001,17.781256],[33.990001,17.834174],[33.923839,18.323615],[33.737901,18.629761],[33.698863,18.694037],[33.593028,18.773444],[33.576736,19.059544],[33.566661,19.236457],[33.05067,19.553961],[32.508311,19.130622],[32.018809,18.813117],[31.873302,18.588202],[31.567714,18.196701],[31.449962,18.045844],[31.396073,18.05684],[30.801768,18.178107],[30.497447,18.905707],[30.39728,19.551502],[30.378429,19.673041],[30.365123,20.30799],[30.53712,20.969489],[31.14564,21.630927],[31.410289,22.001349],[31.520375,22.120274],[31.520518,22.120429],[34.439931,22.067593],[35.908065,22.041022],[36.843937,22.024084],[36.866479,22.023676],[36.87041,22.015771],[36.871387,21.996729],[36.882617,21.768799],[36.926953,21.586523],[37.075789,21.335086],[37.085582,21.300177],[37.145215,20.57218],[37.209117,19.79206],[36.688731,19.730292],[35.983165,19.333441]]]}},{"type":"Feature","properties":{"name":"GREAT SANDY DESERT"},"geometry":{"type":"Polygon","coordinates":[[[123.677745,-22.615289],[123.120372,-22.615289],[122.570567,-22.543878],[122.046397,-22.376519],[121.943736,-22.319757],[121.858287,-22.2492],[121.786876,-22.16485],[121.726329,-22.066949],[121.540294,-21.715387],[121.374522,-21.322809],[121.332676,-21.093342],[121.300548,-20.917169],[121.389781,-20.526056],[121.777476,-19.794488],[121.930553,-19.584649],[122.099864,-19.386773],[122.276012,-19.202203],[122.308726,-19.173394],[122.346202,-19.146905],[122.387462,-19.122735],[122.431651,-19.100274],[122.843761,-18.935113],[123.27003,-18.832696],[123.545055,-18.748101],[123.638316,-18.727472],[124.331065,-18.633722],[125.763194,-18.623712],[127.194469,-18.741021],[127.679454,-18.837701],[127.776866,-18.865289],[127.86439,-18.906793],[127.94398,-18.963556],[128.017833,-19.037286],[128.111217,-19.16607],[128.186778,-19.310479],[128.247081,-19.462701],[128.2942,-19.614679],[128.371715,-19.931329],[128.426036,-20.252984],[128.448741,-20.544],[128.44319,-20.699622],[128.438731,-20.82464],[128.390391,-21.100152],[128.29835,-21.375543],[128.235362,-21.520196],[128.161754,-21.659967],[128.069591,-21.786432],[127.951671,-21.891046],[127.843761,-21.951715],[127.618907,-22.046441],[127.512462,-22.103204],[127.33961,-22.209039],[127.250255,-22.25213],[127.151134,-22.286676],[126.950328,-22.328912],[126.745494,-22.349664],[125.807872,-22.376397],[123.677745,-22.615289]]]}},{"type":"Feature","properties":{"name":"LIBYAN DESERT"},"geometry":{"type":"Polygon","coordinates":[[[25.166026,31.539557],[25.178556,31.541276],[25.217544,31.546626],[25.225488,31.533789],[25.382227,31.512793],[25.893262,31.620898],[26.457324,31.512109],[26.457684,31.512061],[27.301098,31.347869],[27.540039,31.212695],[27.620117,31.191748],[27.820683,31.194875],[27.837212,31.18989],[27.967578,31.097412],[28.213995,31.076262],[28.815596,30.894834],[29.002574,30.838446],[29.012048,30.837797],[29.054836,30.834866],[29.07207,30.830273],[29.101129,30.831694],[29.968272,30.772284],[30.702705,30.44304],[30.735606,30.42829],[30.740829,30.419932],[30.914156,30.142555],[30.933971,30.110846],[30.960938,30.07406],[31.079478,29.91236],[31.066295,29.449347],[30.828136,29.078925],[30.603282,28.602729],[30.629771,27.861884],[30.695933,27.438544],[31.185313,26.909369],[31.582286,26.406684],[32.071666,25.903937],[32.495006,25.864264],[32.309825,25.454169],[32.540998,25.015015],[32.574474,24.951422],[32.719981,24.184149],[32.812511,23.668219],[32.62733,23.482978],[32.825816,23.390387],[32.349498,22.676032],[32.164317,22.808295],[31.635142,22.636359],[31.35731,22.146857],[31.039806,21.538336],[30.32545,20.784247],[30.298961,19.818549],[30.34549,19.539478],[30.457774,18.866034],[30.74879,18.151679],[31.317638,17.992926],[31.396073,18.05684],[31.567714,18.196701],[32.031993,18.575019],[33.010997,19.501044],[33.540172,19.15705],[33.576736,19.059544],[33.737901,18.629761],[33.937022,18.098761],[33.990001,17.648932],[33.698863,16.881659],[32.587657,16.352484],[32.501925,15.623499],[32.472646,15.374536],[32.43071,15.017948],[32.428966,15.003119],[32.426704,14.999916],[32.333845,14.868408],[32.17107,14.637883],[32.111339,14.55329],[32.155254,14.455338],[32.404435,13.899543],[32.586886,13.492591],[32.74379,13.14262],[32.775766,13.071296],[32.799327,13.018744],[32.788338,12.899413],[32.614146,11.00788],[32.058482,10.452277],[32.296641,10.081855],[31.591368,9.467588],[31.588605,9.465181],[31.489295,9.378685],[31.476451,9.367499],[30.829745,9.448337],[30.629771,9.473334],[30.624975,9.47419],[30.494029,9.497568],[29.888927,9.605597],[29.826562,9.572772],[29.800179,9.558885],[29.597028,9.451957],[29.582619,9.444373],[29.457222,9.378371],[29.401464,9.349022],[29.386241,9.34101],[29.285221,9.373772],[29.167103,9.412079],[28.407237,9.658515],[27.190196,9.817267],[26.988168,9.769734],[26.79465,9.724204],[26.740367,9.711432],[26.576789,9.88462],[26.290538,10.18769],[26.252822,10.177764],[25.97611,10.10494],[25.843649,10.07008],[25.636989,10.015692],[25.565397,9.996851],[25.285167,9.923102],[24.859277,10.015692],[24.298361,10.137638],[24.26552,10.144778],[23.690961,10.269689],[23.459483,10.320014],[22.956798,10.161261],[22.796345,10.151233],[22.499332,10.13267],[22.110118,10.108344],[22.062264,10.138652],[21.973875,10.194633],[21.681089,10.380067],[21.316417,10.611029],[21.312187,10.611231],[21.190576,10.617028],[21.046781,10.623883],[20.760753,10.637519],[20.866588,17.172675],[20.52618,17.925702],[19.556895,20.069892],[19.411388,20.718085],[19.676036,21.948432],[20.006724,23.139045],[19.847911,23.959235],[19.779994,23.972135],[19.224392,24.077661],[18.802867,24.157721],[18.353038,24.938239],[18.247203,26.181769],[18.617686,26.684455],[18.829356,27.319464],[18.495862,27.850255],[18.44929,27.924379],[18.181041,28.351325],[18.578014,29.475836],[18.621082,29.560595],[18.988048,30.282782],[18.989794,30.283501],[19.12373,30.266113],[19.291699,30.288086],[19.589844,30.41377],[19.713281,30.488379],[19.861004,30.64221],[19.881249,30.650546],[19.887706,30.653205],[19.919775,30.703412],[20.013184,30.800684],[20.111523,30.963721],[20.141152,31.050002],[20.191905,31.129462],[19.993541,31.870307],[19.996639,31.87418],[20.469397,32.465218],[20.469737,32.465644],[20.48216,32.471475],[21.117931,32.769904],[21.13968,32.776185],[21.31875,32.777686],[21.424707,32.79917],[21.587196,32.90543],[21.70972,32.940815],[21.713267,32.94184],[21.73017,32.939963],[21.839453,32.908643],[21.977809,32.912467],[22.010936,32.908789],[22.308604,32.875739],[22.42788,32.838865],[22.523438,32.793945],[22.721722,32.748026],[22.799781,32.723894],[22.888473,32.696476],[22.916895,32.687158],[23.037146,32.639808],[23.052175,32.4747],[23.060816,32.379769],[23.062633,32.359809],[23.107269,32.347447],[23.10625,32.331445],[23.286328,32.213818],[23.783254,32.160244],[23.866142,32.13729],[23.898438,32.127197],[24.038965,32.037012],[24.129688,32.009229],[24.479785,31.996533],[24.526087,32.000942],[24.670914,31.971973],[24.980846,31.90998],[25.166026,31.539557]]]}},{"type":"Feature","properties":{"name":"GREAT VICTORIA DESERT"},"geometry":{"type":"MultiPolygon","coordinates":[[[[125.129424,-26.59137],[125.324962,-26.596856],[128.27003,-26.861261],[130.592784,-26.916803],[130.774913,-26.942071],[131.546886,-27.213067],[131.824229,-27.351007],[132.071056,-27.562066],[132.19752,-27.740777],[132.288463,-27.94024],[132.343516,-28.152032],[132.362071,-28.367364],[132.35681,-28.564659],[132.355724,-28.605401],[132.323009,-28.845636],[132.243175,-29.067437],[132.095958,-29.250665],[131.950206,-29.344659],[131.786143,-29.410333],[130.960704,-29.599786],[130.798228,-29.621637],[130.686778,-29.622125],[130.36671,-29.582086],[130.068004,-29.604791],[129.468639,-29.732965],[129.166515,-29.764947],[127.297862,-29.748468],[125.98585,-29.622125],[125.681773,-29.612237],[125.225352,-29.641778],[125.100597,-29.636041],[124.975963,-29.612237],[124.34878,-29.402837],[124.223155,-29.360894],[124.223888,-29.3565],[124.225841,-29.352716],[124.229015,-29.349908],[124.233531,-29.347833],[124.060191,-29.224542],[123.942638,-29.088678],[123.863414,-28.924249],[123.805186,-28.715875],[123.766856,-28.483209],[123.756114,-28.248224],[123.772105,-28.013482],[123.814708,-27.781549],[123.906383,-27.537042],[124.037974,-27.333185],[124.350108,-26.940728],[124.514415,-26.762262],[124.70045,-26.655328],[124.91505,-26.603082],[125.129424,-26.59137]]],[[[125.129424,-26.59137],[125.059581,-26.58941],[125.165294,-26.58941],[125.129424,-26.59137]]]]}},{"type":"Feature","properties":{"name":"THAR DESERT"},"geometry":{"type":"Polygon","coordinates":[[[69.309337,24.416144],[69.160411,24.414557],[68.959972,24.459662],[68.720714,24.560492],[68.617686,24.627021],[68.542369,24.701728],[68.507213,24.782904],[68.524669,24.868354],[68.524669,24.946723],[68.3567,26.935797],[68.405772,27.129706],[68.503673,27.285529],[68.639537,27.412665],[69.34669,27.82215],[70.492564,28.73841],[70.794932,28.914069],[71.70081,29.210092],[71.786627,29.238136],[71.816417,29.24787],[72.109567,29.393138],[73.979747,30.319892],[74.507213,30.488715],[74.782237,30.50672],[75.047862,30.4607],[75.172496,30.409247],[75.314708,30.31977],[75.430797,30.212104],[75.522227,30.08869],[75.590831,29.951972],[75.665294,29.648688],[75.665633,29.588188],[75.667125,29.321967],[75.594127,28.955878],[75.450206,28.581061],[75.252574,28.239203],[74.578868,27.508124],[72.913829,26.383246],[72.717179,26.159103],[72.611095,26.038188],[71.798839,25.112372],[71.581065,24.942511],[71.437999,24.865729],[71.285899,24.818854],[70.312633,24.751837],[69.455455,24.441779],[69.309337,24.416144]]]}},{"type":"Feature","properties":{"name":"SYRIAN DESERT"},"geometry":{"type":"Polygon","coordinates":[[[40.503307,30.483954],[40.240123,30.470526],[39.971446,30.490485],[39.184947,30.622077],[38.935557,30.694892],[38.692027,30.786078],[38.450206,30.892707],[38.346202,30.931464],[38.14702,30.978899],[38.034557,31.005683],[37.972789,31.032721],[37.913341,31.069281],[37.486705,31.37403],[37.335582,31.498786],[37.20399,31.632941],[37.084605,31.78321],[36.985606,31.938483],[36.911876,32.106452],[36.868663,32.294928],[36.857921,32.570563],[36.891368,32.849982],[36.960826,33.123847],[37.058116,33.382636],[37.227672,33.615058],[37.467662,33.764289],[37.745372,33.853949],[38.028209,33.907599],[39.37318,34.009467],[39.912364,34.055243],[39.989513,34.070929],[40.140636,34.112921],[40.218272,34.124945],[40.462779,34.120063],[40.713145,34.082038],[42.205699,33.701483],[42.290538,33.664984],[42.521983,33.534919],[42.630015,33.482611],[42.67982,33.453803],[42.729991,33.410102],[42.969127,33.119452],[43.057994,33.038336],[43.247569,32.885993],[43.334239,32.801642],[43.45692,32.618354],[43.525645,32.413764],[43.545055,32.198004],[43.519786,31.981208],[43.457652,31.786994],[43.36671,31.618964],[43.251964,31.461127],[43.033214,31.195258],[42.950328,31.110663],[42.856456,31.039679],[42.829472,31.025731],[42.737315,30.978095],[42.633311,30.938727],[42.525401,30.907233],[41.268443,30.691718],[40.760875,30.538214],[40.503307,30.483954]]]}},{"type":"Feature","properties":{"name":"GARAGUM DESERT"},"geometry":{"type":"Polygon","coordinates":[[[59.375743,44.083686],[59.313731,44.081183],[59.287486,44.083686],[59.257823,44.078681],[59.20814,44.051337],[59.159679,44.040229],[59.147227,44.034003],[59.131114,44.017829],[59.126231,44.010443],[59.102672,44.004218],[59.064098,43.966986],[59.055431,43.94953],[59.069591,43.924628],[59.109264,43.873542],[59.114879,43.853339],[59.130382,43.845221],[59.146373,43.844184],[59.153697,43.844855],[59.221324,43.80683],[59.254161,43.771613],[59.26234,43.75904],[59.264415,43.740241],[59.25648,43.70539],[59.255504,43.690131],[59.258556,43.678778],[59.267223,43.658271],[59.269176,43.645758],[59.26234,43.604193],[59.25294,43.592536],[59.19337,43.566596],[59.17335,43.552375],[59.154552,43.542426],[59.133189,43.540229],[59.09547,43.551642],[59.065684,43.55445],[59.056163,43.552314],[59.053966,43.545905],[59.057262,43.527045],[59.056163,43.518866],[59.047374,43.508124],[59.038585,43.502631],[59.031749,43.495795],[59.028941,43.481269],[59.030772,43.471808],[59.035167,43.461554],[59.040782,43.453315],[59.046031,43.449897],[59.057384,43.446112],[59.065929,43.436957],[59.121226,43.345954],[59.1244,43.331488],[59.125011,43.310004],[59.115733,43.296271],[59.097179,43.28498],[59.083873,43.269843],[59.090343,43.244513],[59.104625,43.23194],[59.12025,43.225592],[59.132945,43.215888],[59.138194,43.193305],[59.140147,43.169867],[59.159312,43.114753],[59.162608,43.094794],[59.163341,43.067206],[59.157481,43.042731],[59.141856,43.032172],[59.131602,43.028205],[59.127696,43.018805],[59.128551,43.007392],[59.131969,42.997443],[59.138805,42.989936],[59.157481,42.982917],[59.166026,42.977607],[59.207652,42.912421],[59.210582,42.905646],[59.224132,42.886359],[59.227428,42.874518],[59.226207,42.862189],[59.222423,42.853461],[59.213878,42.840399],[59.204356,42.787177],[59.230846,42.772528],[59.275035,42.769416],[59.317515,42.751044],[59.32899,42.731208],[59.329845,42.709235],[59.323741,42.665656],[59.315562,42.649359],[59.298839,42.63465],[59.286143,42.61933],[59.289561,42.600775],[59.299449,42.596869],[59.330699,42.590522],[59.337291,42.583441],[59.341685,42.574164],[59.352183,42.564704],[59.364879,42.559516],[59.383311,42.566107],[59.396739,42.568183],[59.410533,42.56861],[59.419322,42.566718],[59.428111,42.535102],[59.432994,42.525702],[59.449351,42.514106],[59.493175,42.494147],[59.512096,42.480719],[59.606212,42.386542],[59.642223,42.367682],[59.771739,42.317511],[59.794444,42.313544],[59.820933,42.312201],[59.841563,42.314826],[59.883067,42.325507],[59.906505,42.326483],[59.928966,42.319953],[59.968394,42.297248],[60.004649,42.288398],[60.051768,42.267524],[60.252696,42.130378],[60.264659,42.112616],[60.269664,42.089972],[60.270885,42.06507],[60.276012,42.0456],[60.286388,42.028754],[60.303844,42.011786],[60.334117,41.99433],[60.344737,41.990058],[60.394908,41.980414],[60.444347,41.976386],[60.458629,41.967719],[60.462047,41.947089],[60.461436,41.901923],[60.469493,41.886176],[60.496593,41.85517],[60.507457,41.829535],[60.535533,41.791815],[60.549571,41.778449],[60.566905,41.769843],[60.587901,41.765876],[60.635875,41.764777],[60.651622,41.758002],[60.662974,41.741523],[60.679942,41.702704],[60.705699,41.66828],[60.738048,41.640631],[60.974986,41.479926],[61.000377,41.475898],[61.01295,41.47193],[61.024669,41.466193],[61.060557,41.435736],[61.091441,41.414679],[61.114024,41.407904],[61.171886,41.39942],[61.190807,41.39112],[61.243785,41.346625],[61.25648,41.33216],[61.277965,41.278815],[61.286998,41.271308],[61.311534,41.265082],[61.358897,41.239936],[61.386974,41.237189],[61.396617,41.272406],[61.410167,41.293463],[61.432628,41.301764],[61.469371,41.298651],[61.566783,41.279242],[61.653819,41.2508],[61.87733,41.12641],[61.896739,41.110236],[61.970225,41.016791],[61.97877,41.000251],[61.982188,40.979926],[61.984752,40.909369],[61.989513,40.894538],[61.982188,40.887152],[61.993175,40.867255],[62.024791,40.783393],[62.036143,40.737738],[62.0442,40.716437],[62.055064,40.703192],[62.088023,40.675849],[62.099498,40.661811],[62.120128,40.600409],[62.133556,40.57923],[62.170909,40.541388],[62.176768,40.53205],[62.184825,40.509345],[62.191295,40.500434],[62.212779,40.487982],[62.260265,40.477118],[62.34315,40.440863],[62.352672,40.43183],[62.355724,40.389594],[62.361949,40.371039],[62.387828,40.331549],[62.396007,40.313422],[62.399547,40.293524],[62.400523,40.267035],[62.424937,40.164923],[62.459483,40.079779],[62.504283,39.99964],[62.556041,39.933051],[62.623546,39.880805],[62.700572,39.845038],[62.781627,39.813971],[62.861461,39.775458],[63.150279,39.580573],[63.314342,39.493232],[63.390025,39.445502],[63.463145,39.384528],[63.515514,39.320441],[63.604015,39.179389],[63.65858,39.118048],[63.669566,39.142157],[63.713512,39.207526],[63.733775,39.208808],[63.761241,39.215033],[63.887096,39.270209],[63.915538,39.291388],[63.927501,39.318305],[63.907115,39.357062],[63.908946,39.366584],[63.912852,39.376532],[63.914928,39.386298],[63.916637,39.403144],[63.914806,39.409003],[63.907481,39.421088],[63.893932,39.437567],[63.866222,39.461127],[63.853526,39.475653],[63.841319,39.495124],[63.831554,39.51789],[63.832042,39.536689],[63.858653,39.548285],[63.893199,39.571845],[63.919444,39.580085],[63.928599,39.585517],[63.944347,39.603583],[63.956309,39.623786],[63.969127,39.640143],[63.986949,39.646979],[64.008433,39.649726],[64.082286,39.684211],[64.118053,39.710517],[64.168712,39.736335],[64.173595,39.737006],[64.184703,39.735419],[64.189342,39.736335],[64.193736,39.740973],[64.198009,39.752265],[64.203014,39.756842],[64.234874,39.768927],[64.254649,39.772589],[64.261729,39.778205],[64.2671,39.785956],[64.274913,39.794684],[64.304576,39.814276],[64.316295,39.827521],[64.319102,39.846198],[64.323741,39.854926],[64.324351,39.870612],[64.326427,39.879706],[64.330455,39.888434],[64.333385,39.893256],[64.356822,39.915717],[64.38734,39.934638],[64.428233,39.950873],[64.435802,39.95484],[64.438609,39.959418],[64.441417,39.966559],[64.445689,39.97309],[64.452525,39.975898],[64.500499,39.977912],[64.556895,39.97016],[64.576671,39.9737],[64.614268,39.996955],[64.732799,40.038764],[64.750743,40.048529],[64.768443,40.061591],[64.782237,40.076422],[64.8296,40.150702],[64.844859,40.160163],[64.91566,40.162421],[65.024547,40.191779],[65.257213,40.179633],[65.319591,40.167731],[65.336803,40.16706],[65.389049,40.170661],[65.405528,40.17768],[65.425182,40.190009],[65.447765,40.19184],[65.553233,40.168402],[65.588023,40.144049],[65.64857,40.113105],[65.67689,40.082587],[65.692515,40.069892],[65.733165,40.058722],[65.752086,40.047187],[65.771617,40.039496],[65.792491,40.044867],[65.835826,40.023566],[65.878184,40.016852],[66.104381,40.054023],[66.234508,40.044867],[66.477794,39.996405],[66.552501,39.995246],[66.587535,39.977362],[66.656016,39.969123],[66.691173,39.951361],[66.734141,39.940802],[66.751353,39.934027],[66.775279,39.932379],[66.785655,39.928168],[66.79005,39.921454],[66.79481,39.903266],[66.799937,39.893988],[66.80482,39.892462],[66.830089,39.876776],[66.830211,39.8758],[66.830577,39.873908],[66.830577,39.872931],[66.838756,39.870795],[66.864635,39.860297],[66.871837,39.856147],[66.878673,39.846015],[66.889293,39.820929],[66.895518,39.811469],[66.904552,39.805365],[66.937022,39.791571],[66.982677,39.74372],[67.013438,39.727545],[67.060557,39.681708],[67.083263,39.674872],[67.123912,39.646552],[67.146251,39.640143],[67.169078,39.63642],[67.216807,39.620002],[65.489268,37.862921],[64.167857,36.75727],[63.094127,36.222724],[62.189342,36.254523],[61.312877,36.472113],[60.475352,36.827521],[59.687755,37.272895],[59.127648,37.669477],[58.435634,38.159455],[57.767345,38.632636],[57.44691,38.805915],[57.091441,38.922187],[57.000011,38.944403],[56.913829,38.971625],[56.829478,39.005561],[56.743419,39.047797],[56.388927,39.347602],[56.089,39.794623],[55.893443,40.296698],[55.851817,40.76142],[55.986095,41.437751],[56.23817,41.838324],[57.537852,42.837287],[58.167369,43.434455],[58.491229,43.84209],[58.610478,43.992185],[58.691417,44.094062],[59.562266,45.480292],[59.58192,45.463813],[59.599254,45.446906],[59.614268,45.42945],[59.625987,45.411505],[59.648204,45.333075],[59.652476,45.235541],[59.650401,45.13465],[59.666515,44.898688],[59.673839,44.851752],[59.69044,44.802558],[59.73463,44.727668],[59.753917,44.681586],[59.752696,44.529853],[59.690196,44.350836],[59.587169,44.192328],[59.464854,44.102179],[59.434093,44.092353],[59.375743,44.083686]]]}},{"type":"Feature","properties":{"name":"QIZILQUM DESERT"},"geometry":{"type":"Polygon","coordinates":[[[67.431285,44.659674],[68.570726,43.505007],[69.020763,43.048957],[69.114879,42.283515],[68.625377,41.351508],[67.216807,39.620002],[67.169078,39.63642],[67.146251,39.640143],[67.123912,39.646552],[67.083263,39.674872],[67.060557,39.681708],[67.013438,39.727545],[66.982677,39.74372],[66.937022,39.791571],[66.904552,39.805365],[66.895518,39.811469],[66.889293,39.820929],[66.878673,39.846015],[66.871837,39.856147],[66.864635,39.860297],[66.838756,39.870795],[66.830577,39.872931],[66.830577,39.873908],[66.830211,39.8758],[66.830089,39.876776],[66.80482,39.892462],[66.799937,39.893988],[66.79481,39.903266],[66.79005,39.921454],[66.785655,39.928168],[66.775279,39.932379],[66.751353,39.934027],[66.734141,39.940802],[66.691173,39.951361],[66.656016,39.969123],[66.587535,39.977362],[66.552501,39.995246],[66.477794,39.996405],[66.234508,40.044867],[66.104381,40.054023],[65.878184,40.016852],[65.835826,40.023566],[65.792491,40.044867],[65.771617,40.039496],[65.752086,40.047187],[65.733165,40.058722],[65.692515,40.069892],[65.67689,40.082587],[65.64857,40.113105],[65.588023,40.144049],[65.553233,40.168402],[65.447765,40.19184],[65.425182,40.190009],[65.405528,40.17768],[65.389049,40.170661],[65.336803,40.16706],[65.319591,40.167731],[65.257213,40.179633],[65.024547,40.191779],[64.91566,40.162421],[64.844859,40.160163],[64.8296,40.150702],[64.782237,40.076422],[64.768443,40.061591],[64.750743,40.048529],[64.732799,40.038764],[64.614268,39.996955],[64.576671,39.9737],[64.556895,39.97016],[64.500499,39.977912],[64.452525,39.975898],[64.445689,39.97309],[64.441417,39.966559],[64.438609,39.959418],[64.435802,39.95484],[64.428233,39.950873],[64.38734,39.934638],[64.356822,39.915717],[64.333385,39.893256],[64.330455,39.888434],[64.326427,39.879706],[64.324351,39.870612],[64.323741,39.854926],[64.319102,39.846198],[64.316295,39.827521],[64.304576,39.814276],[64.274913,39.794684],[64.2671,39.785956],[64.261729,39.778205],[64.254649,39.772589],[64.234874,39.768927],[64.203014,39.756842],[64.198009,39.752265],[64.193736,39.740973],[64.189342,39.736335],[64.184703,39.735419],[64.173595,39.737006],[64.168712,39.736335],[64.118053,39.710517],[64.082286,39.684211],[64.008433,39.649726],[63.986949,39.646979],[63.969127,39.640143],[63.956309,39.623786],[63.944347,39.603583],[63.928599,39.585517],[63.919444,39.580085],[63.893199,39.571845],[63.858653,39.548285],[63.832042,39.536689],[63.831554,39.51789],[63.841319,39.495124],[63.853526,39.475653],[63.866222,39.461127],[63.893932,39.437567],[63.907481,39.421088],[63.914806,39.409003],[63.916637,39.403144],[63.914928,39.386298],[63.912852,39.376532],[63.908946,39.366584],[63.907115,39.357062],[63.927501,39.318305],[63.915538,39.291388],[63.887096,39.270209],[63.761241,39.215033],[63.733775,39.208808],[63.713512,39.207526],[63.669566,39.142157],[63.65858,39.118048],[63.604015,39.179389],[63.515514,39.320441],[63.463145,39.384528],[63.390025,39.445502],[63.314342,39.493232],[63.150279,39.580573],[62.861461,39.775458],[62.781627,39.813971],[62.700572,39.845038],[62.623546,39.880805],[62.556041,39.933051],[62.504283,39.99964],[62.459483,40.079779],[62.424937,40.164923],[62.400523,40.267035],[62.399547,40.293524],[62.396007,40.313422],[62.387828,40.331549],[62.361949,40.371039],[62.355724,40.389594],[62.352672,40.43183],[62.34315,40.440863],[62.260265,40.477118],[62.212779,40.487982],[62.191295,40.500434],[62.184825,40.509345],[62.176768,40.53205],[62.170909,40.541388],[62.133556,40.57923],[62.120128,40.600409],[62.099498,40.661811],[62.088023,40.675849],[62.055064,40.703192],[62.0442,40.716437],[62.036143,40.737738],[62.024791,40.783393],[61.993175,40.867255],[61.982188,40.887152],[61.989513,40.894538],[61.984752,40.909369],[61.982188,40.979926],[61.97877,41.000251],[61.970225,41.016791],[61.896739,41.110236],[61.87733,41.12641],[61.653819,41.2508],[61.566783,41.279242],[61.469371,41.298651],[61.432628,41.301764],[61.410167,41.293463],[61.396617,41.272406],[61.386974,41.237189],[61.358897,41.239936],[61.311534,41.265082],[61.286998,41.271308],[61.277965,41.278815],[61.25648,41.33216],[61.243785,41.346625],[61.190807,41.39112],[61.171886,41.39942],[61.114024,41.407904],[61.091441,41.414679],[61.060557,41.435736],[61.024669,41.466193],[61.01295,41.47193],[61.000377,41.475898],[60.974986,41.479926],[60.738048,41.640631],[60.705699,41.66828],[60.679942,41.702704],[60.662974,41.741523],[60.651622,41.758002],[60.635875,41.764777],[60.587901,41.765876],[60.566905,41.769843],[60.549571,41.778449],[60.535533,41.791815],[60.507457,41.829535],[60.496593,41.85517],[60.469493,41.886176],[60.461436,41.901923],[60.462047,41.947089],[60.458629,41.967719],[60.444347,41.976386],[60.394908,41.980414],[60.344737,41.990058],[60.334117,41.99433],[60.303844,42.011786],[60.286388,42.028754],[60.276012,42.0456],[60.270885,42.06507],[60.269664,42.089972],[60.264659,42.112616],[60.252696,42.130378],[60.051768,42.267524],[60.004649,42.288398],[59.968394,42.297248],[59.928966,42.319953],[59.906505,42.326483],[59.883067,42.325507],[59.841563,42.314826],[59.820933,42.312201],[59.794444,42.313544],[59.771739,42.317511],[59.642223,42.367682],[59.606212,42.386542],[59.512096,42.480719],[59.493175,42.494147],[59.449351,42.514106],[59.432994,42.525702],[59.428111,42.535102],[59.419322,42.566718],[59.410533,42.56861],[59.396739,42.568183],[59.383311,42.566107],[59.364879,42.559516],[59.352183,42.564704],[59.341685,42.574164],[59.337291,42.583441],[59.330699,42.590522],[59.299449,42.596869],[59.289561,42.600775],[59.286143,42.61933],[59.298839,42.63465],[59.315562,42.649359],[59.323741,42.665656],[59.329845,42.709235],[59.32899,42.731208],[59.317515,42.751044],[59.275035,42.769416],[59.230846,42.772528],[59.204356,42.787177],[59.213878,42.840399],[59.222423,42.853461],[59.226207,42.862189],[59.227428,42.874518],[59.224132,42.886359],[59.210582,42.905646],[59.207652,42.912421],[59.166026,42.977607],[59.157481,42.982917],[59.138805,42.989936],[59.131969,42.997443],[59.128551,43.007392],[59.127696,43.018805],[59.131602,43.028205],[59.141856,43.032172],[59.157481,43.042731],[59.163341,43.067206],[59.162608,43.094794],[59.159312,43.114753],[59.140147,43.169867],[59.138194,43.193305],[59.132945,43.215888],[59.12025,43.225592],[59.104625,43.23194],[59.090343,43.244513],[59.083873,43.269843],[59.097179,43.28498],[59.115733,43.296271],[59.125011,43.310004],[59.1244,43.331488],[59.121226,43.345954],[59.065929,43.436957],[59.057384,43.446112],[59.046031,43.449897],[59.040782,43.453315],[59.035167,43.461554],[59.030772,43.471808],[59.028941,43.481269],[59.031749,43.495795],[59.038585,43.502631],[59.047374,43.508124],[59.056163,43.518866],[59.057262,43.527045],[59.053966,43.545905],[59.056163,43.552314],[59.065684,43.55445],[59.09547,43.551642],[59.133189,43.540229],[59.154552,43.542426],[59.17335,43.552375],[59.19337,43.566596],[59.25294,43.592536],[59.26234,43.604193],[59.269176,43.645758],[59.267223,43.658271],[59.258556,43.678778],[59.255504,43.690131],[59.25648,43.70539],[59.264415,43.740241],[59.26234,43.75904],[59.254161,43.771613],[59.221324,43.80683],[59.153697,43.844855],[59.146373,43.844184],[59.130382,43.845221],[59.114879,43.853339],[59.109264,43.873542],[59.069591,43.924628],[59.055431,43.94953],[59.064098,43.966986],[59.102672,44.004218],[59.126231,44.010443],[59.131114,44.017829],[59.147227,44.034003],[59.159679,44.040229],[59.20814,44.051337],[59.257823,44.078681],[59.287486,44.083686],[59.313731,44.081183],[59.375743,44.083686],[59.434093,44.092353],[59.464854,44.102179],[59.587169,44.192328],[59.690196,44.350836],[59.752696,44.529853],[59.753917,44.681586],[59.73463,44.727668],[59.69044,44.802558],[59.673839,44.851752],[59.666515,44.898688],[59.650401,45.13465],[59.652476,45.235541],[59.648204,45.333075],[59.625987,45.411505],[59.614268,45.42945],[59.599254,45.446906],[59.58192,45.463813],[59.562266,45.480292],[60.112795,46.330894],[60.187999,46.447089],[60.535411,46.877265],[60.924571,47.255805],[62.766124,47.491706],[65.140758,46.38349],[66.892729,45.064983],[67.431285,44.659674]]]}},{"type":"Feature","properties":{"name":"DESIERTO DE ATACAMA"},"geometry":{"type":"Polygon","coordinates":[[[-69.512489,-18.496788],[-69.040891,-19.75461],[-68.994679,-19.877862],[-68.840696,-20.45534],[-68.359731,-22.259088],[-68.188954,-22.634332],[-67.865834,-22.982232],[-67.952626,-23.816095],[-68.059192,-24.090399],[-68.065968,-24.107843],[-68.543507,-24.474542],[-68.61876,-24.643817],[-68.678578,-24.778375],[-68.830495,-25.554986],[-69.241689,-26.033868],[-69.657704,-26.584771],[-69.86028,-27.19256],[-69.860768,-27.48443],[-69.775868,-27.78338],[-69.809621,-27.952203],[-69.961537,-28.002862],[-70.105946,-27.815362],[-70.383656,-27.344415],[-70.582204,-27.374322],[-70.833046,-27.302653],[-70.903389,-27.282555],[-70.910536,-27.280513],[-70.8979,-27.1875],[-70.812744,-26.950586],[-70.80293,-26.840918],[-70.708398,-26.596973],[-70.686963,-26.421777],[-70.646582,-26.329395],[-70.657026,-26.260091],[-70.65276,-26.245538],[-70.660723,-26.212088],[-70.635449,-25.992676],[-70.699609,-25.861133],[-70.708202,-25.814274],[-70.708124,-25.814128],[-70.487912,-25.405489],[-70.417043,-25.27398],[-70.51513,-24.876277],[-70.564626,-24.675592],[-70.540655,-24.379983],[-70.529718,-24.245101],[-70.507422,-24.129687],[-70.513785,-24.048615],[-70.511708,-24.023004],[-70.472188,-23.756442],[-70.409961,-23.655566],[-70.392334,-23.565918],[-70.419629,-23.528516],[-70.511963,-23.482812],[-70.588135,-23.368359],[-70.588382,-23.363026],[-70.552716,-23.065769],[-70.551382,-23.054656],[-70.461337,-23.03653],[-70.388173,-23.052789],[-70.264699,-22.752984],[-70.035451,-21.37713],[-70.176503,-20.583429],[-70.176503,-20.419449],[-70.147461,-20.229785],[-70.148145,-19.805078],[-70.157422,-19.705859],[-70.176503,-19.662551],[-70.176503,-19.630914],[-70.292228,-18.847218],[-70.29945,-18.798309],[-70.358291,-18.399839],[-70.369557,-18.323541],[-70.322399,-18.324514],[-70.079762,-18.329522],[-69.872712,-18.060681],[-69.740468,-17.888971],[-69.589894,-18.290338],[-69.512489,-18.496788]]]}},{"type":"Feature","properties":{"name":"Idhän Murzuq"},"geometry":{"type":"Polygon","coordinates":[[[13.983737,23.619399],[13.140758,23.363959],[12.386729,23.443305],[12.016368,23.813727],[11.685557,24.289984],[11.923717,25.229254],[12.227916,25.877509],[13.564098,26.115607],[14.423961,25.930426],[14.834117,25.824591],[14.66212,25.096991],[14.371104,24.422309],[14.036216,23.678081],[14.013927,23.628546],[13.983737,23.619399]]]}},{"type":"Feature","properties":{"name":"Hamada du Drâa"},"geometry":{"type":"Polygon","coordinates":[[[-5.935658,27.359137],[-7.452626,26.918158],[-8.81078,27.129828],[-9.86913,27.165107],[-10.627553,27.553168],[-10.662892,27.994147],[-10.063161,28.294013],[-8.775502,28.664374],[-8.575809,28.743668],[-7.64872,29.111796],[-7.5761,29.140631],[-7.566826,29.149482],[-7.187978,29.511054],[-6.605946,29.863837],[-6.076772,29.987311],[-5.720397,30.082349],[-5.415334,30.163703],[-5.322915,30.239416],[-4.815078,30.655458],[-4.683278,30.763434],[-4.542776,30.828486],[-3.797301,31.173635],[-3.730824,31.204413],[-3.523965,31.209857],[-3.060536,31.222052],[-2.862983,31.071561],[-2.690053,30.939826],[-2.372609,30.63996],[-2.460805,30.287177],[-3.236928,30.269599],[-3.360402,29.687506],[-3.730824,29.422919],[-4.295277,29.228888],[-3.554433,28.858466],[-3.924855,28.558539],[-4.983144,27.853034],[-5.935658,27.359137]]]}},{"type":"Feature","properties":{"name":"Ténéré"},"geometry":{"type":"Polygon","coordinates":[[[15.830699,14.218207],[15.266246,13.865424],[14.56068,14.130011],[13.908092,14.235846],[13.184825,14.35932],[11.861949,14.747321],[10.8213,15.294135],[10.340587,16.109931],[9.837901,17.790045],[9.837901,18.507095],[9.837901,18.574971],[9.837901,18.649909],[9.586558,19.271674],[8.83253,19.695014],[8.856794,20.364577],[8.858897,20.422614],[9.441051,21.335456],[9.40307,21.49212],[9.229381,22.208564],[8.885387,22.830329],[8.842887,22.979144],[8.806041,23.108161],[8.800293,23.155045],[8.761885,23.46833],[8.726573,23.756354],[8.634353,24.112401],[8.634044,24.113593],[8.479744,24.386546],[8.29005,24.722113],[8.771331,24.907191],[8.806041,24.920539],[8.865778,24.880218],[9.335216,24.563361],[9.600807,24.328999],[10.170878,23.825962],[10.234752,23.769599],[10.449782,23.399819],[10.706554,22.958258],[10.75018,22.890885],[11.054942,22.420233],[12.144176,22.032172],[13.837413,21.379584],[15.248546,21.238471],[15.98939,20.427069],[16.148191,20.134596],[16.167539,20.09896],[16.324596,19.809699],[16.33033,19.495405],[16.342296,18.839545],[16.148204,17.957587],[15.760142,16.969794],[15.745167,16.879838],[15.707286,16.652289],[15.760142,16.140815],[15.949718,15.660102],[16.112926,15.347052],[16.236339,14.99433],[16.024791,14.518073],[15.92302,14.36084],[15.830699,14.218207]]]}},{"type":"Feature","properties":{"name":"Tassili oua-n-Ahaggar"},"geometry":{"type":"Polygon","coordinates":[[[9.445445,22.323249],[9.480724,21.64411],[9.40307,21.49212],[8.863414,20.435858],[8.651063,20.356521],[8.630566,20.348864],[7.917309,20.082382],[7.750883,20.020203],[7.258189,19.836127],[5.900035,19.606818],[5.167979,19.730292],[4.056773,20.047797],[3.950938,20.903266],[3.324718,21.220771],[3.218883,22.032172],[3.977306,22.508429],[4.515391,22.605414],[4.983062,22.447164],[5.362071,22.318915],[5.88377,21.984474],[5.979402,21.923168],[5.98817,21.917548],[6.508556,21.688239],[6.529814,21.698868],[6.833047,21.850484],[7.108287,21.988105],[7.857921,22.270331],[7.927189,22.320534],[8.589976,22.800897],[8.819224,22.967047],[8.842887,22.979144],[9.216075,23.169928],[9.445445,22.323249]]]}},{"type":"Feature","properties":{"name":"Tassili-n-Ajjer"},"geometry":{"type":"Polygon","coordinates":[[[7.240733,26.997626],[7.434703,26.688971],[7.734508,26.627265],[8.298961,26.486151],[8.907481,26.450873],[9.436778,26.600775],[9.55128,26.468512],[9.366099,26.168647],[9.59547,26.036322],[9.868907,25.665961],[10.168712,25.471869],[10.389171,25.683539],[10.406871,25.868781],[10.556773,25.842292],[10.565684,25.515998],[10.662608,25.101447],[10.706676,24.62519],[10.821422,24.325385],[10.909557,24.228339],[11.006602,23.954962],[11.350597,23.78736],[11.544566,23.381659],[11.227061,22.640815],[10.75018,22.890885],[10.688975,22.92298],[10.459605,23.372809],[10.449782,23.399819],[10.318492,23.76081],[10.170878,23.825962],[10.018687,23.893134],[9.621837,24.298835],[9.600807,24.328999],[9.418956,24.58985],[8.925059,24.863288],[8.865778,24.880218],[8.771331,24.907191],[8.431163,25.00434],[8.228282,24.686835],[7.557994,24.528144],[7.02003,24.633979],[6.967052,25.066107],[6.975963,25.365973],[6.702525,25.6482],[6.340953,25.6482],[6.305675,25.313056],[6.147137,25.23186],[5.944102,25.127875],[5.741957,25.245191],[5.670665,25.286566],[5.600108,25.542365],[5.361949,26.106818],[5.247325,26.389045],[4.949641,26.627168],[4.938609,26.635993],[4.919759,26.730424],[4.868175,26.988837],[5.115123,27.165229],[5.529674,27.306342],[5.609019,27.174079],[5.58253,27.068244],[5.723765,27.032904],[5.83839,27.182868],[5.891368,27.438666],[6.02357,27.465094],[6.102916,27.34162],[6.111705,27.059394],[6.323375,26.847724],[6.535045,26.741889],[6.46461,27.156378],[6.596812,27.447455],[6.755626,27.588568],[6.976085,27.465094],[7.090709,27.121161],[7.240733,26.997626]]]}},{"type":"Feature","properties":{"name":"Sarïr Kalanshiyu ar Ramli al Kabi"},"geometry":{"type":"Polygon","coordinates":[[[26.14503,29.105414],[26.158214,28.443915],[25.615855,27.769232],[25.181536,27.341403],[24.729503,26.896125],[24.068126,26.552191],[23.049449,26.023017],[22.057262,24.567816],[20.588756,24.819159],[18.789683,25.745185],[19.133556,26.710944],[18.961681,27.293036],[18.988048,27.927985],[19.186534,28.523322],[19.464366,28.682074],[19.967052,28.470404],[20.139049,28.76142],[20.324229,29.489081],[19.92788,29.831398],[19.742198,29.991767],[19.702403,30.441535],[20.602061,31.301459],[20.754063,31.270672],[21.647105,31.089789],[23.366954,30.375434],[23.490715,30.312362],[24.606834,29.743558],[24.742808,29.674262],[25.236741,29.473885],[26.14503,29.105414]]]}},{"type":"Feature","properties":{"name":"Grand Erg Oriental"},"geometry":{"type":"Polygon","coordinates":[[[6.248424,28.66883],[5.573741,28.576239],[4.849923,28.602589],[4.84608,28.602729],[4.827931,28.664911],[4.753429,28.920172],[4.039073,29.158332],[4.488902,29.727179],[5.401744,30.3357],[5.66627,30.54737],[6.486461,30.878119],[7.531627,31.830634],[8.073985,32.399482],[8.550304,32.84925],[9.132335,32.769904],[9.463023,32.108405],[9.63502,31.394049],[9.793834,30.944281],[9.740855,30.494452],[9.396983,30.12403],[9.039806,29.91236],[8.444469,29.687506],[7.703624,29.277411],[7.095103,28.893744],[6.248424,28.66883]]]}},{"type":"Feature","properties":{"name":"Grand Erg Occidental"},"geometry":{"type":"Polygon","coordinates":[[[3.007213,31.208869],[2.96754,30.375434],[2.517711,30.216681],[1.776866,29.833014],[0.864146,29.81977],[0.176158,29.634589],[-0.379445,29.18476],[-1.00121,29.317084],[-1.808156,29.833014],[-2.178578,30.163764],[-2.297658,30.573859],[-2.03307,30.772284],[-1.689137,30.679694],[-1.040883,30.944281],[-0.538197,30.957465],[-0.194203,30.811957],[0.401134,30.838446],[0.758311,30.983954],[0.943492,31.142707],[1.313853,31.394049],[1.247813,31.764472],[1.327159,32.00257],[1.790172,32.029059],[2.173839,32.372992],[2.941051,32.306891],[3.046886,32.161322],[3.36439,31.923224],[3.007213,31.208869]]]}},{"type":"Feature","properties":{"name":"‘Erg Chech"},"geometry":{"type":"Polygon","coordinates":[[[-2.784214,23.022128],[-3.792531,22.693671],[-4.365834,23.002387],[-5.873891,23.196357],[-6.023854,23.97248],[-5.701464,24.203457],[-5.432973,24.395819],[-4.365834,24.80152],[-3.333913,25.42768],[-2.760671,26.247931],[-2.743031,26.988715],[-1.314259,28.108771],[-0.423512,27.958869],[-0.441151,27.262091],[-0.070729,26.565375],[-0.69695,26.300849],[-1.331899,25.321845],[-1.878713,24.422309],[-1.869862,23.822577],[-2.628407,23.072882],[-2.784214,23.022128]]]}},{"type":"Feature","properties":{"name":"El Djouf"},"geometry":{"type":"Polygon","coordinates":[[[-6.517751,19.209967],[-7.452626,18.610236],[-8.385469,18.623375],[-8.705006,18.627875],[-10.627553,19.703864],[-10.6867,19.789597],[-10.980458,20.215399],[-10.962758,20.674018],[-10.427011,21.19999],[-9.992604,21.626471],[-9.287099,22.08515],[-8.757924,22.684821],[-7.893605,23.1258],[-7.329213,23.531501],[-5.723988,24.201789],[-5.701464,24.203457],[-5.247792,24.237067],[-4.6657,24.201789],[-3.536733,24.060675],[-2.784214,23.022128],[-2.654836,22.843573],[-2.795888,21.979315],[-4.577504,20.427069],[-5.547597,19.756781],[-5.78683,19.621941],[-6.517751,19.209967]]]}},{"type":"Feature","properties":{"name":"CHIHUAHUAN DESERT"},"geometry":{"type":"Polygon","coordinates":[[[-106.444142,33.761664],[-106.389089,33.551703],[-105.959157,33.646674],[-105.924123,33.441657],[-105.909169,33.041693],[-105.834096,32.611701],[-105.61913,32.386725],[-105.299123,32.421698],[-105.084096,32.321723],[-104.884145,31.896674],[-104.644093,31.766669],[-104.644093,31.926703],[-104.469106,32.161689],[-104.614125,32.321723],[-104.929067,32.546698],[-105.22411,32.751654],[-105.204091,33.361701],[-105.134145,33.626654],[-104.739125,33.656684],[-104.654103,33.931647],[-104.344106,34.071662],[-104.264042,33.907553],[-104.144093,33.661689],[-104.119566,33.622892],[-103.929128,33.321662],[-103.914113,33.061652],[-103.814076,32.671698],[-103.744069,32.251654],[-103.469106,31.911689],[-103.340098,31.667507],[-103.329091,31.646674],[-103.319243,31.642453],[-102.734059,31.391669],[-102.274037,31.396674],[-102.069707,31.244065],[-101.879079,31.101691],[-101.649037,31.021674],[-101.349049,30.861701],[-100.904042,30.341681],[-100.674062,30.151679],[-100.654042,29.781745],[-100.784047,29.546698],[-101.039052,29.466742],[-101.320464,29.649329],[-101.324086,29.651679],[-101.599049,29.726691],[-101.766495,29.694943],[-101.889089,29.671698],[-102.214101,29.461676],[-102.509084,29.241706],[-102.839101,29.316718],[-102.869069,29.211737],[-102.674062,28.981696],[-102.559071,28.751715],[-102.619069,28.421698],[-102.439076,28.231696],[-102.094106,28.056708],[-101.869069,27.811713],[-101.33904,27.496711],[-101.219045,27.346747],[-101.08904,27.251715],[-100.899037,27.021735],[-100.606121,27.059766],[-100.514027,27.071723],[-100.492204,26.913424],[-100.474049,26.781745],[-100.554067,26.466742],[-100.539052,26.161689],[-100.539052,25.821723],[-100.829091,25.501776],[-101.144032,25.311774],[-101.601674,25.28852],[-101.901784,25.348517],[-102.421986,25.448554],[-102.499298,25.465401],[-103.079091,25.591742],[-103.234059,25.611762],[-103.499074,25.41175],[-103.619069,25.146735],[-103.48412,24.841742],[-103.669057,24.521735],[-103.824086,24.251776],[-104.184071,24.366706],[-104.439076,24.766791],[-104.714101,24.916693],[-105.124135,25.446784],[-105.33862,25.560823],[-105.35912,25.571723],[-105.351171,25.587315],[-105.229115,25.826728],[-104.914113,25.991767],[-105.34911,26.461676],[-105.702992,26.888983],[-105.963063,27.129096],[-106.401282,27.037798],[-106.443227,27.029059],[-106.441268,27.072113],[-106.423207,27.469184],[-106.399159,27.806708],[-106.294118,28.136725],[-106.264089,28.50672],[-106.35912,28.831732],[-106.389089,29.161689],[-106.50414,29.476691],[-106.899159,29.701728],[-107.324147,29.866706],[-107.679128,29.941718],[-108.019147,30.115636],[-108.109181,30.161689],[-108.24413,30.466681],[-108.703908,30.730231],[-109.229176,30.751715],[-109.299184,30.451667],[-109.509145,30.406684],[-109.64745,30.713446],[-109.829213,31.086737],[-110.196363,31.142707],[-110.244008,31.14997],[-110.634206,31.301703],[-111.019215,31.361701],[-110.934193,31.701728],[-110.854176,31.876654],[-110.694203,32.461676],[-110.424184,32.946662],[-110.724172,33.241645],[-110.704213,33.441657],[-110.429189,33.531684],[-110.10436,33.451117],[-109.769154,33.271674],[-109.249135,33.036689],[-109.044179,32.896674],[-108.799184,32.821662],[-108.574147,32.621649],[-108.394154,32.501654],[-108.344167,32.75672],[-108.169179,32.846686],[-107.88915,32.761664],[-107.744191,32.606696],[-107.61913,32.636664],[-107.569142,32.946662],[-107.554128,33.261664],[-107.384145,33.441657],[-107.199147,33.666632],[-107.009145,33.836676],[-106.939137,34.166632],[-106.824086,34.296698],[-106.48412,34.231635],[-106.444142,33.761664]]]}},{"type":"Feature","properties":{"name":"SONORAN DESERT"},"geometry":{"type":"MultiPolygon","coordinates":[[[[-112.677419,34.450019],[-112.594228,34.276679],[-112.509206,34.161689],[-112.199208,34.08161],[-111.924245,33.896674],[-111.569203,33.551703],[-111.334218,33.396674],[-111.044179,33.201667],[-110.724172,33.241645],[-110.424184,32.946662],[-110.694203,32.461676],[-110.854176,31.876654],[-110.934193,31.701728],[-111.019215,31.361701],[-111.189198,31.131659],[-110.894215,30.881659],[-110.752212,30.720589],[-110.634206,30.586737],[-110.509206,30.266669],[-110.539174,29.89173],[-110.299184,29.426703],[-110.431287,29.016806],[-110.504506,28.789618],[-110.08434,28.049384],[-109.924306,27.689276],[-110.159169,27.566718],[-110.394154,27.721747],[-110.562725,27.81768],[-110.529883,27.864209],[-110.718033,27.906065],[-110.719228,27.906745],[-110.723115,27.907195],[-110.759033,27.915186],[-110.801954,27.916332],[-111.048533,27.944907],[-111.072406,27.952144],[-111.188708,28.028965],[-111.280974,28.113902],[-111.349233,28.211737],[-111.353355,28.215962],[-111.47168,28.383984],[-111.680078,28.470557],[-111.747217,28.563965],[-111.802307,28.618392],[-111.814198,28.636725],[-111.869126,28.699478],[-111.907031,28.75249],[-111.918604,28.7979],[-111.94082,28.823193],[-112.035042,28.889029],[-112.074696,28.934333],[-112.213124,29.308783],[-112.394215,29.496711],[-112.40653,29.512773],[-112.414551,29.536426],[-112.503689,29.6395],[-112.590803,29.753124],[-112.653125,29.870068],[-112.665578,29.883295],[-112.74924,30.0585],[-112.759229,30.125684],[-112.824805,30.300146],[-112.867225,30.370271],[-112.894215,30.456671],[-113.031541,30.616241],[-113.044254,30.633167],[-113.089528,30.90705],[-113.052211,31.07889],[-113.04292,31.087012],[-113.044122,31.116136],[-113.03423,31.161689],[-113.046268,31.168089],[-113.046729,31.179248],[-113.083643,31.207178],[-113.160443,31.228791],[-113.222157,31.261603],[-113.282642,31.263686],[-113.417119,31.283988],[-113.604237,31.351691],[-113.641774,31.503607],[-113.705188,31.526371],[-113.759424,31.557764],[-113.947754,31.629346],[-113.97749,31.592725],[-114.002686,31.525146],[-114.080908,31.510352],[-114.14767,31.507445],[-114.150999,31.508063],[-114.264063,31.554443],[-114.548682,31.733545],[-114.608789,31.762256],[-114.697607,31.777441],[-114.741309,31.806494],[-114.933594,31.900732],[-114.895068,31.850635],[-114.839502,31.798535],[-114.789893,31.647119],[-114.848145,31.537939],[-114.850648,31.509634],[-114.853566,31.503607],[-114.879262,31.346747],[-114.871577,31.296067],[-114.870286,31.287553],[-114.881885,31.156396],[-114.844678,31.080469],[-114.837247,31.069655],[-114.829213,31.016669],[-114.770644,30.972724],[-114.761035,30.95874],[-114.708465,30.78229],[-114.699269,30.711737],[-114.692525,30.678051],[-114.685449,30.621191],[-114.677774,30.604369],[-114.674245,30.586737],[-114.643523,30.424827],[-114.639593,30.404114],[-114.649756,30.238135],[-114.641722,30.204971],[-114.644276,30.166693],[-114.529225,29.971686],[-114.719228,30.121711],[-114.854237,30.311713],[-114.969228,30.436713],[-115.214223,30.601691],[-115.244252,30.801703],[-115.28423,31.026679],[-115.464284,31.226691],[-115.509267,31.491706],[-115.679311,31.736701],[-115.755215,31.915109],[-115.779286,31.971686],[-115.859242,32.286689],[-115.964284,32.501654],[-116.164296,32.681708],[-116.29424,32.856696],[-116.474294,33.076667],[-116.499318,33.376654],[-116.394276,33.456671],[-116.334279,33.546698],[-116.549245,33.676642],[-116.689259,33.856635],[-116.719289,33.991645],[-116.519276,34.036689],[-116.384267,33.926642],[-116.139272,33.781684],[-115.919301,33.691657],[-115.514272,33.751654],[-115.344289,33.901679],[-115.279286,34.016669],[-115.31453,34.196681],[-115.329213,34.271674],[-115.019276,34.361701],[-114.799245,34.521674],[-114.644276,34.61164],[-114.454274,34.531623],[-114.386459,34.559306],[-114.209218,34.631659],[-114.024281,34.711676],[-113.924245,34.856635],[-113.744191,34.901618],[-113.594228,34.996649],[-113.434255,34.906684],[-113.299245,34.821662],[-113.02422,34.666693],[-112.677419,34.450019]]],[[[-114.74365,31.713557],[-114.789209,31.747412],[-114.78457,31.789795],[-114.771094,31.794092],[-114.715646,31.760823],[-114.74365,31.713557]]]]}},{"type":"Feature","properties":{"name":"Great Salt Lake Desert"},"geometry":{"type":"Polygon","coordinates":[[[-113.266164,39.988105],[-113.585256,39.907782],[-113.830861,40.317084],[-114.038625,40.78498],[-113.915883,41.169074],[-113.558705,41.433661],[-113.323842,41.475287],[-113.002248,41.135077],[-113.090627,40.367621],[-113.266164,39.988105]]]}},{"type":"Feature","properties":{"name":"Gibson Desert"},"geometry":{"type":"Polygon","coordinates":[[[125.579845,-25.787408],[125.20399,-25.820977],[124.632945,-25.809381],[124.104747,-25.75506],[123.596812,-25.629449],[123.178233,-25.403009],[123.095714,-25.305719],[123.049693,-25.193414],[122.9369,-24.721246],[122.920055,-24.480401],[122.940929,-24.239923],[123.001842,-24.01336],[123.101573,-23.833429],[123.239757,-23.684015],[123.401378,-23.555841],[123.571178,-23.439508],[123.874034,-23.265802],[124.205089,-23.134088],[124.551402,-23.056207],[124.900035,-23.04339],[125.044322,-23.057428],[125.190684,-23.079767],[125.483653,-23.146173],[125.802989,-23.2492],[126.50526,-23.556207],[126.696544,-23.661432],[126.878917,-23.805475],[127.028697,-24.007501],[127.104747,-24.237848],[127.122691,-24.484918],[127.098033,-24.737481],[127.066173,-24.843072],[126.962169,-25.037774],[126.847057,-25.326349],[126.760142,-25.446344],[126.633189,-25.524225],[125.904063,-25.765191],[125.800548,-25.782159],[125.579845,-25.787408]]]}},{"type":"Feature","properties":{"name":"Mu Us Desert"},"geometry":{"type":"Polygon","coordinates":[[[107.962779,40.91529],[110.777354,40.342597],[111.045421,40.19245],[111.199351,40.060736],[111.230846,40.017035],[111.25294,39.971381],[111.266612,39.923774],[111.272349,39.874091],[111.263072,39.768683],[111.139537,39.332343],[111.104015,39.268988],[111.057384,39.210395],[110.939708,39.107306],[110.840221,38.981635],[110.763682,38.831855],[110.712779,38.671088],[110.688243,38.469611],[110.783946,37.983832],[110.783824,37.876654],[110.772716,37.82154],[110.748668,37.768805],[110.259898,37.257209],[110.232921,37.245124],[110.202469,37.24741],[110.194713,37.247992],[110.148936,37.265448],[109.865489,37.456977],[109.654307,37.547736],[109.288423,37.588922],[108.572032,37.669562],[107.913219,37.61933],[107.572815,37.528196],[107.539561,37.519294],[107.539348,37.519331],[107.301524,37.561469],[107.292735,37.558844],[107.224132,37.523444],[105.655528,37.626349],[105.48109,37.667304],[105.410777,37.700446],[105.359386,37.744269],[105.333873,37.787177],[105.31776,37.838202],[105.284434,38.185614],[105.136485,38.791083],[105.143321,38.929755],[105.226573,39.237616],[105.256589,39.292108],[105.404131,39.559963],[105.558604,39.840399],[105.786265,40.110724],[105.999156,40.289923],[106.098521,40.337653],[106.687511,40.470526],[106.727794,40.472663],[106.759288,40.460089],[106.785167,40.437567],[106.830943,40.381842],[106.856944,40.358283],[106.888682,40.343878],[106.92921,40.343512],[106.975597,40.35871],[107.740001,40.886725],[107.802501,40.906073],[107.962779,40.91529]]]}},{"type":"Feature","properties":{"name":"TAKLIMAKAN DESERT"},"geometry":{"type":"Polygon","coordinates":[[[83.963267,37.312079],[83.573131,37.237921],[81.706798,37.340522],[81.062877,37.542487],[81.000987,37.578376],[80.953502,37.625006],[80.794688,37.651435],[80.619762,37.660346],[79.572032,37.879767],[78.529552,38.365668],[78.413219,38.454657],[78.338756,38.543891],[78.29359,38.654547],[78.278941,38.76435],[78.291515,38.869818],[78.328258,38.967536],[78.385753,39.054084],[78.460582,39.126044],[78.549937,39.179938],[78.650279,39.212409],[79.098888,39.27674],[79.296764,39.335578],[79.517345,39.464362],[80.012462,39.896674],[80.194224,40.012763],[80.413829,40.088202],[84.873912,40.583686],[86.770396,40.385443],[87.083873,40.272528],[87.349986,40.1081],[87.54713,39.880072],[87.653941,39.576483],[87.640269,39.311652],[87.522227,39.106086],[87.325572,38.947272],[84.386607,37.636542],[84.03419,37.344062],[83.963267,37.312079]]]}},{"type":"Feature","properties":{"name":"LUT DESERT"},"geometry":{"type":"Polygon","coordinates":[[[59.620006,29.81977],[59.445445,29.801642],[59.249889,29.818061],[58.948253,29.860846],[58.681285,29.919135],[58.432628,30.009894],[58.185802,30.150092],[58.088756,30.224066],[58.004283,30.301764],[57.845836,30.466376],[57.524425,30.748725],[57.449229,30.802558],[57.216075,30.93183],[57.078014,31.044379],[56.960582,31.174811],[56.619517,31.625067],[56.514659,31.793036],[56.430431,31.971869],[56.364757,32.174567],[56.308482,32.489814],[56.296153,32.846198],[56.345348,33.191474],[56.473277,33.473334],[56.618419,33.619818],[56.763072,33.671759],[56.916026,33.646918],[57.249766,33.489997],[57.42628,33.432868],[57.596202,33.366034],[57.740733,33.263922],[57.801158,33.190436],[57.906261,33.028266],[57.962901,32.952765],[58.827647,32.0008],[59.190807,31.489142],[59.326182,31.325873],[59.469981,31.171515],[59.606944,31.039374],[59.799571,30.883002],[59.873668,30.792609],[59.920543,30.663825],[59.939708,30.518439],[59.943126,30.356513],[59.926036,30.196723],[59.883556,30.057746],[59.767955,29.896979],[59.620006,29.81977]]]}}]}